IRIDIUM 63              
1 25286U 98021B   25078.11202898  .00000926  00000+0  30938-3 0  9998
2 25286  86.3958 119.9338 0002234  96.4742 263.6709 14.36428215411185
IRIDIUM 69              
1 25319U 98026A   25077.70586425  .00001182  00000+0  36318-3 0  9998
2 25319  86.3983 133.6629 0001901  28.3811 331.7492 14.40826456410030
IRIDIUM 71              
1 25320U 98026B   25077.65556418  .00001012  00000+0  30887-3 0  9990
2 25320  86.3969 128.3929 0003695  60.9633 299.1936 14.41032562410551
IRIDIUM 73              
1 25344U 98032C   25078.10590308  .00001861  00000+0  46073-3 0  9996
2 25344  86.4352  85.0826 0001849  77.9891 282.1522 14.51514383417795
IRIDIUM 82              
1 25467U 98051A   25077.75363696  .00042022  00000+0  14096-2 0  9994
2 25467  86.3730 154.0128 0093044 278.3949  80.6758 15.26560915410139
